{
  "type": "FeatureCollection",
  "features": [
    {
      "type": "Feature",
      "properties": {
        "norad_id": 43260,
        "name": "GAOFEN-1 03",
        "group": "resource",
        "lat": -57.55975463684652,
        "lon": -148.83967924148195,
        "alt_km": 647.5864589128396,
        "timestamp": "2025-12-12T09:49:08.385577+00:00",
        "meta_object_name": "GAOFEN-1 03",
        "meta_object_id": "2018-031B",
        "meta_epoch": "2025-12-12T03:51:45.605664",
        "meta_mean_motion": 14.76435093,
        "meta_eccentricity": 0.0002024,
        "meta_inclination": 98.08,
        "meta_ra_of_asc_node": 43.827,
        "meta_arg_of_pericenter": 324.8903,
        "meta_mean_anomaly": 35.2172,
        "meta_ephemeris_type": 0,
        "meta_classification_type": "U",
        "meta_norad_cat_id": 43260,
        "meta_element_set_no": 999,
        "meta_rev_at_epoch": 41509,
        "meta_bstar": 0.00022272,
        "meta_mean_motion_dot": 1.497e-05,
        "meta_mean_motion_ddot": 0,
        "tle_line1": "1 43260U 18031B   25346.16094451  .00001497  00000+0  22272-3 0  9996",
        "tle_line2": "2 43260  98.0800  43.8270 0002024 324.8903  35.2172 14.76435093415094"
      },
      "geometry": {
        "type": "Point",
        "coordinates": [
          -148.83967924148195,
          -57.55975463684652
        ]
      }
    },
    {
      "type": "Feature",
      "properties": {
        "norad_id": 43262,
        "name": "GAOFEN-1 04",
        "group": "resource",
        "lat": 7.588670154433535,
        "lon": 43.15949223654345,
        "alt_km": 642.0367174063931,
        "timestamp": "2025-12-12T09:49:08.385587+00:00",
        "meta_object_name": "GAOFEN-1 04",
        "meta_object_id": "2018-031D",
        "meta_epoch": "2025-12-12T04:54:17.538624",
        "meta_mean_motion": 14.7644983,
        "meta_eccentricity": 0.0001062,
        "meta_inclination": 98.0805,
        "meta_ra_of_asc_node": 44.0392,
        "meta_arg_of_pericenter": 58.1833,
        "meta_mean_anomaly": 301.948,
        "meta_ephemeris_type": 0,
        "meta_classification_type": "U",
        "meta_norad_cat_id": 43262,
        "meta_element_set_no": 999,
        "meta_rev_at_epoch": 41509,
        "meta_bstar": 0.00029999,
        "meta_mean_motion_dot": 2.035e-05,
        "meta_mean_motion_ddot": 0,
        "tle_line1": "1 43262U 18031D   25346.20436966  .00002035  00000+0  29999-3 0  9996",
        "tle_line2": "2 43262  98.0805  44.0392 0001062  58.1833 301.9480 14.76449830415098"
      },
      "geometry": {
        "type": "Point",
        "coordinates": [
          43.15949223654345,
          7.588670154433535
        ]
      }
    },
    {
      "type": "Feature",
      "properties": {
        "norad_id": 43437,
        "name": "SENTINEL-3B",
        "group": "resource",
        "lat": -52.746253586016536,
        "lon": -139.91552725693953,
        "alt_km": 810.3314157328932,
        "timestamp": "2025-12-12T09:49:08.385598+00:00",
        "meta_object_name": "SENTINEL-3B",
        "meta_object_id": "2018-039A",
        "meta_epoch": "2025-12-11T10:50:50.552736",
        "meta_mean_motion": 14.26742264,
        "meta_eccentricity": 0.00015576,
        "meta_inclination": 98.6268,
        "meta_ra_of_asc_node": 50.6556,
        "meta_arg_of_pericenter": 104.2946,
        "meta_mean_anomaly": 255.8408,
        "meta_ephemeris_type": 0,
        "meta_classification_type": "U",
        "meta_norad_cat_id": 43437,
        "meta_element_set_no": 999,
        "meta_rev_at_epoch": 39735,
        "meta_bstar": 0.00012251697,
        "meta_mean_motion_dot": 2.53e-06,
        "meta_mean_motion_ddot": 0,
        "tle_line1": "1 43437U 18039A   25345.45197399  .00000253  00000+0  12252-3 0  9992",
        "tle_line2": "2 43437  98.6268  50.6556 0001557 104.2946 255.8408 14.26742264397350"
      },
      "geometry": {
        "type": "Point",
        "coordinates": [
          -139.91552725693953,
          -52.746253586016536
        ]
      }
    },
    {
      "type": "Feature",
      "properties": {
        "norad_id": 43461,
        "name": "GAOFEN-5 01",
        "group": "resource",
        "lat": -2.65534513752936,
        "lon": 128.97634546666828,
        "alt_km": 695.8295860690469,
        "timestamp": "2025-12-12T09:49:08.385608+00:00",
        "meta_object_name": "GAOFEN-5 01",
        "meta_object_id": "2018-043A",
        "meta_epoch": "2025-12-12T04:03:09.332928",
        "meta_mean_motion": 14.60409081,
        "meta_eccentricity": 9.96e-05,
        "meta_inclination": 98.4325,
        "meta_ra_of_asc_node": 309.1261,
        "meta_arg_of_pericenter": 342.6516,
        "meta_mean_anomaly": 17.4649,
        "meta_ephemeris_type": 0,
        "meta_classification_type": "U",
        "meta_norad_cat_id": 43461,
        "meta_element_set_no": 999,
        "meta_rev_at_epoch": 40439,
        "meta_bstar": 0.00017211,
        "meta_mean_motion_dot": 7.84e-06,
        "meta_mean_motion_ddot": 0,
        "tle_line1": "1 43461U 18043A   25346.16885802  .00000784  00000+0  17211-3 0  9995",
        "tle_line2": "2 43461  98.4325 309.1261 0000996 342.6516  17.4649 14.60409081404398"
      },
      "geometry": {
        "type": "Point",
        "coordinates": [
          128.97634546666828,
          -2.65534513752936
        ]
      }
    },
    {
      "type": "Feature",
      "properties": {
        "norad_id": 43484,
        "name": "GAOFEN-6",
        "group": "resource",
        "lat": 20.69443495672429,
        "lon": -126.34401461975973,
        "alt_km": 640.8800034603246,
        "timestamp": "2025-12-12T09:49:08.385618+00:00",
        "meta_object_name": "GAOFEN-6",
        "meta_object_id": "2018-048A",
        "meta_epoch": "2025-12-12T04:13:24.259872",
        "meta_mean_motion": 14.7656529,
        "meta_eccentricity": 0.0013238,
        "meta_inclination": 97.8029,
        "meta_ra_of_asc_node": 50.4614,
        "meta_arg_of_pericenter": 65.288,
        "meta_mean_anomaly": 294.9706,
        "meta_ephemeris_type": 0,
        "meta_classification_type": "U",
        "meta_norad_cat_id": 43484,
        "meta_element_set_no": 999,
        "meta_rev_at_epoch": 40579,
        "meta_bstar": 0.00020813,
        "meta_mean_motion_dot": 1.404e-05,
        "meta_mean_motion_ddot": 0,
        "tle_line1": "1 43484U 18048A   25346.17597523  .00001404  00000+0  20813-3 0  9998",
        "tle_line2": "2 43484  97.8029  50.4614 0013238  65.2880 294.9706 14.76565290405793"
      },
      "geometry": {
        "type": "Point",
        "coordinates": [
          -126.34401461975973,
          20.69443495672429
        ]
      }
    },
    {
      "type": "Feature",
      "properties": {
        "norad_id": 43585,
        "name": "GAOFEN-11 01",
        "group": "resource",
        "lat": -58.38849639627849,
        "lon": -142.43230941738096,
        "alt_km": 425.47209748988917,
        "timestamp": "2025-12-12T09:49:08.385629+00:00",
        "meta_object_name": "GAOFEN-11 01",
        "meta_object_id": "2018-063A",
        "meta_epoch": "2025-12-12T04:08:21.115968",
        "meta_mean_motion": 15.49206882,
        "meta_eccentricity": 0.0004243,
        "meta_inclination": 97.1559,
        "meta_ra_of_asc_node": 49.1115,
        "meta_arg_of_pericenter": 316.15,
        "meta_mean_anomaly": 43.9414,
        "meta_ephemeris_type": 0,
        "meta_classification_type": "U",
        "meta_norad_cat_id": 43585,
        "meta_element_set_no": 999,
        "meta_rev_at_epoch": 41133,
        "meta_bstar": 0.000618,
        "meta_mean_motion_dot": 0.00033697,
        "meta_mean_motion_ddot": 0,
        "tle_line1": "1 43585U 18063A   25346.17246662  .00033697  00000+0  61800-3 0  9992",
        "tle_line2": "2 43585  97.1559  49.1115 0004243 316.1500  43.9414 15.49206882411335"
      },
      "geometry": {
        "type": "Point",
        "coordinates": [
          -142.43230941738096,
          -58.38849639627849
        ]
      }
    },
    {
      "type": "Feature",
      "properties": {
        "norad_id": 43613,
        "name": "ICESAT-2",
        "group": "resource",
        "lat": 0.15990880254483084,
        "lon": -119.35744417239876,
        "alt_km": 485.4512307760451,
        "timestamp": "2025-12-12T09:49:08.385639+00:00",
        "meta_object_name": "ICESAT-2",
        "meta_object_id": "2018-070A",
        "meta_epoch": "2025-12-12T03:31:57.857952",
        "meta_mean_motion": 15.28371997,
        "meta_eccentricity": 0.0002727,
        "meta_inclination": 92.0043,
        "meta_ra_of_asc_node": 240.5775,
        "meta_arg_of_pericenter": 151.3031,
        "meta_mean_anomaly": 208.8369,
        "meta_ephemeris_type": 0,
        "meta_classification_type": "U",
        "meta_norad_cat_id": 43613,
        "meta_element_set_no": 999,
        "meta_rev_at_epoch": 40389,
        "meta_bstar": 0.00067227,
        "meta_mean_motion_dot": 0.00018585,
        "meta_mean_motion_ddot": 0,
        "tle_line1": "1 43613U 18070A   25346.14719743  .00018585  00000+0  67227-3 0  9992",
        "tle_line2": "2 43613  92.0043 240.5775 0002727 151.3031 208.8369 15.28371997403891"
      },
      "geometry": {
        "type": "Point",
        "coordinates": [
          -119.35744417239876,
          0.15990880254483084
        ]
      }
    }
  ]
}